start=new Date('2022-01-05T00:00:00.000Z').valueOf();
sats=[{"SEMIMAJOR_AXIS":"6925.348","CENTER_NAME":"EARTH","TLE_LINE2":"2 45102  53.0549 251.4801 0002030  61.9052 298.2142 15.06400139107206","MEAN_ANOMALY":"298.2142","ARG_OF_PERICENTER":"61.9052","REV_AT_EPOCH":"10720","PERIAPSIS":"545.807","RCS_SIZE":"LARGE","PERIOD":"95.592","RA_OF_ASC_NODE":"251.4801","REF_FRAME":"TEME","MEAN_MOTION_DDOT":"0.0000000000000","OBJECT_TYPE":"PAYLOAD","APOAPSIS":"548.619","MEAN_MOTION_DOT":"-0.00000130","ELEMENT_SET_NO":"999","SITE":"AFETR","FILE":"3264067","CLASSIFICATION_TYPE":"U","GP_ID":"193213253","MEAN_MOTION":"15.06400139","EPHEMERIS_TYPE":"0","NORAD_CAT_ID":"45102","OBJECT_ID":"2020-006BL","EPOCH":"2022-01-04T22:39:46.309536","TIME_SYSTEM":"UTC","BSTAR":"0.00001016900000","TLE_LINE1":"1 45102U 20006BL  22004.94428599 -.00000130  00000-0  10169-4 0  9994","MEAN_ELEMENT_THEORY":"SGP4","DECAY_DATE":null,"LAUNCH_DATE":"2020-01-29","COUNTRY_CODE":"US","OBJECT_NAME":"STARLINK-1195","INCLINATION":"53.0549","ECCENTRICITY":"0.00020300"},{"SITE":"AFETR","ELEMENT_SET_NO":"999","MEAN_MOTION_DOT":"-0.00000631","APOAPSIS":"548.368","OBJECT_TYPE":"PAYLOAD","MEAN_MOTION_DDOT":"0.0000000000000","REF_FRAME":"TEME","RA_OF_ASC_NODE":"251.9932","PERIOD":"95.593","RCS_SIZE":"LARGE","PERIAPSIS":"546.094","REV_AT_EPOCH":"10719","ARG_OF_PERICENTER":"71.7847","MEAN_ANOMALY":"288.3320","TLE_LINE2":"2 45103  53.0541 251.9932 0001642  71.7847 288.3320 15.06394278107190","CENTER_NAME":"EARTH","SEMIMAJOR_AXIS":"6925.366","ECCENTRICITY":"0.00016420","OBJECT_NAME":"STARLINK-1196","INCLINATION":"53.0541","LAUNCH_DATE":"2020-01-29","COUNTRY_CODE":"US","DECAY_DATE":null,"MEAN_ELEMENT_THEORY":"SGP4","TLE_LINE1":"1 45103U 20006BM  22004.84382626 -.00000631  00000-0 -23485-4 0  9996","BSTAR":"-0.00002348500000","TIME_SYSTEM":"UTC","EPOCH":"2022-01-04T20:15:06.588864","OBJECT_ID":"2020-006BM","NORAD_CAT_ID":"45103","EPHEMERIS_TYPE":"0","GP_ID":"193214005","CLASSIFICATION_TYPE":"U","MEAN_MOTION":"15.06394278","FILE":"3264067"},{"GP_ID":"193178658","CLASSIFICATION_TYPE":"U","MEAN_MOTION":"15.06398481","EPHEMERIS_TYPE":"0","NORAD_CAT_ID":"45178","FILE":"3263295","TIME_SYSTEM":"UTC","OBJECT_ID":"2020-012A","EPOCH":"2022-01-04T10:21:59.712768","TLE_LINE1":"1 45178U 20012A   22004.43194112 -.00000684  00000-0 -27007-4 0  9993","MEAN_ELEMENT_THEORY":"SGP4","BSTAR":"-0.00002700700000","INCLINATION":"53.0551","OBJECT_NAME":"STARLINK-1138","ECCENTRICITY":"0.00015380","DECAY_DATE":null,"COUNTRY_CODE":"US","LAUNCH_DATE":"2020-02-17","MEAN_ANOMALY":"284.6502","TLE_LINE2":"2 45178  53.0551  53.7580 0001538  75.4658 284.6502 15.06398481104889","SEMIMAJOR_AXIS":"6925.353","CENTER_NAME":"EARTH","RA_OF_ASC_NODE":"53.7580","PERIOD":"95.592","RCS_SIZE":"LARGE","REV_AT_EPOCH":"10488","ARG_OF_PERICENTER":"75.4658","PERIAPSIS":"546.153","OBJECT_TYPE":"PAYLOAD","MEAN_MOTION_DDOT":"0.0000000000000","REF_FRAME":"TEME","SITE":"AFETR","MEAN_MOTION_DOT":"-0.00000684","APOAPSIS":"548.283","ELEMENT_SET_NO":"999"},{"SITE":"AFETR","MEAN_MOTION_DOT":"0.00000737","APOAPSIS":"548.188","ELEMENT_SET_NO":"999","OBJECT_TYPE":"PAYLOAD","MEAN_MOTION_DDOT":"0.0000000000000","REF_FRAME":"TEME","PERIOD":"95.592","RA_OF_ASC_NODE":"52.8612","RCS_SIZE":"LARGE","REV_AT_EPOCH":"10497","ARG_OF_PERICENTER":"76.1769","PERIAPSIS":"546.253","MEAN_ANOMALY":"283.9376","TLE_LINE2":"2 45179  53.0542  52.8612 0001397  76.1769 283.9376 15.06397745104973","SEMIMAJOR_AXIS":"6925.355","CENTER_NAME":"EARTH","INCLINATION":"53.0542","OBJECT_NAME":"STARLINK-1143","ECCENTRICITY":"0.00013970","DECAY_DATE":null,"COUNTRY_CODE":"US","LAUNCH_DATE":"2020-02-17","TLE_LINE1":"1 45179U 20012B   22004.63466842  .00000737  00000-0  68371-4 0  9994","MEAN_ELEMENT_THEORY":"SGP4","BSTAR":"0.00006837100000","TIME_SYSTEM":"UTC","EPOCH":"2022-01-04T15:13:55.351488","OBJECT_ID":"2020-012B","CLASSIFICATION_TYPE":"U","GP_ID":"193212761","MEAN_MOTION":"15.06397745","EPHEMERIS_TYPE":"0","NORAD_CAT_ID":"45179","FILE":"3264067"},{"ECCENTRICITY":"0.00014110","INCLINATION":"53.0515","OBJECT_NAME":"STARLINK-1192","LAUNCH_DATE":"2020-02-17","COUNTRY_CODE":"US","DECAY_DATE":null,"MEAN_ELEMENT_THEORY":"SGP4","TLE_LINE1":"1 45180U 20012C   22004.49365370 -.00001424  00000-0 -76742-4 0  9991","BSTAR":"-0.00007674200000","TIME_SYSTEM":"UTC","EPOCH":"2022-01-04T11:50:51.679680","OBJECT_ID":"2020-012C","NORAD_CAT_ID":"45180","EPHEMERIS_TYPE":"0","MEAN_MOTION":"15.06395368","GP_ID":"193177657","CLASSIFICATION_TYPE":"U","FILE":"3263295","SITE":"AFETR","ELEMENT_SET_NO":"999","MEAN_MOTION_DOT":"-0.00001424","APOAPSIS":"548.205","OBJECT_TYPE":"PAYLOAD","MEAN_MOTION_DDOT":"0.0000000000000","REF_FRAME":"TEME","RA_OF_ASC_NODE":"53.4937","PERIOD":"95.592","RCS_SIZE":"LARGE","PERIAPSIS":"546.251","REV_AT_EPOCH":"10495","ARG_OF_PERICENTER":"81.9442","MEAN_ANOMALY":"278.1707","TLE_LINE2":"2 45180  53.0515  53.4937 0001411  81.9442 278.1707 15.06395368104952","CENTER_NAME":"EARTH","SEMIMAJOR_AXIS":"6925.363"},{"TIME_SYSTEM":"UTC","EPOCH":"2022-01-04T14:52:41.455200","OBJECT_ID":"2020-012D","FILE":"3264067","EPHEMERIS_TYPE":"0","NORAD_CAT_ID":"45181","MEAN_MOTION":"15.06400054","GP_ID":"193214263","CLASSIFICATION_TYPE":"U","LAUNCH_DATE":"2020-02-17","COUNTRY_CODE":"US","DECAY_DATE":null,"ECCENTRICITY":"0.00013240","INCLINATION":"53.0541","OBJECT_NAME":"STARLINK-1200","BSTAR":"0.00010701000000","MEAN_ELEMENT_THEORY":"SGP4","TLE_LINE1":"1 45181U 20012D   22004.61992425  .00001313  00000-0  10701-3 0  9990","PERIAPSIS":"546.296","REV_AT_EPOCH":"10497","ARG_OF_PERICENTER":"70.4970","PERIOD":"95.592","RA_OF_ASC_NODE":"52.9133","RCS_SIZE":"LARGE","CENTER_NAME":"EARTH","SEMIMAJOR_AXIS":"6925.348","MEAN_ANOMALY":"289.6162","TLE_LINE2":"2 45181  53.0541  52.9133 0001324  70.4970 289.6162 15.06400054104979","ELEMENT_SET_NO":"999","MEAN_MOTION_DOT":"0.00001313","APOAPSIS":"548.130","SITE":"AFETR","MEAN_MOTION_DDOT":"0.0000000000000","REF_FRAME":"TEME","OBJECT_TYPE":"PAYLOAD"},{"MEAN_ELEMENT_THEORY":"SGP4","TLE_LINE1":"1 45182U 20012E   22004.37480048  .00000487  00000-0  51608-4 0  9990","BSTAR":"0.00005160800000","ECCENTRICITY":"0.00013930","OBJECT_NAME":"STARLINK-1201","INCLINATION":"53.0561","LAUNCH_DATE":"2020-02-17","COUNTRY_CODE":"US","DECAY_DATE":null,"NORAD_CAT_ID":"45182","EPHEMERIS_TYPE":"0","GP_ID":"193186205","CLASSIFICATION_TYPE":"U","MEAN_MOTION":"15.06404161","FILE":"3263441","OBJECT_ID":"2020-012E","EPOCH":"2022-01-04T08:59:42.761472","TIME_SYSTEM":"UTC","OBJECT_TYPE":"PAYLOAD","REF_FRAME":"TEME","MEAN_MOTION_DDOT":"0.0000000000000","SITE":"AFETR","ELEMENT_SET_NO":"999","APOAPSIS":"548.166","MEAN_MOTION_DOT":"0.00000487","TLE_LINE2":"2 45182  53.0561  34.0337 0001393  81.3715 278.7432 15.06404161104571","MEAN_ANOMALY":"278.7432","CENTER_NAME":"EARTH","SEMIMAJOR_AXIS":"6925.336","RCS_SIZE":"LARGE","RA_OF_ASC_NODE":"34.0337","PERIOD":"95.592","PERIAPSIS":"546.236","ARG_OF_PERICENTER":"81.3715","REV_AT_EPOCH":"10457"},{"OBJECT_ID":"2020-012F","EPOCH":"2022-01-04T12:34:41.376864","TIME_SYSTEM":"UTC","NORAD_CAT_ID":"45183","EPHEMERIS_TYPE":"0","GP_ID":"193192115","MEAN_MOTION":"15.06392923","CLASSIFICATION_TYPE":"U","FILE":"3263945","ECCENTRICITY":"0.00012180","OBJECT_NAME":"STARLINK-1202","INCLINATION":"53.0556","COUNTRY_CODE":"US","LAUNCH_DATE":"2020-02-17","DECAY_DATE":null,"MEAN_ELEMENT_THEORY":"SGP4","TLE_LINE1":"1 45183U 20012F   22004.52409001 -.00001799  00000-0 -10195-3 0  9992","BSTAR":"-0.00010195000000","RCS_SIZE":"LARGE","RA_OF_ASC_NODE":"53.3529","PERIOD":"95.593","PERIAPSIS":"546.392","ARG_OF_PERICENTER":"83.9085","REV_AT_EPOCH":"10430","TLE_LINE2":"2 45183  53.0556  53.3529 0001218  83.9085 276.2043 15.06392923104301","MEAN_ANOMALY":"276.2043","CENTER_NAME":"EARTH","SEMIMAJOR_AXIS":"6925.370","SITE":"AFETR","ELEMENT_SET_NO":"999","APOAPSIS":"548.079","MEAN_MOTION_DOT":"-0.00001799","OBJECT_TYPE":"PAYLOAD","REF_FRAME":"TEME","MEAN_MOTION_DDOT":"0.0000000000000"},{"FILE":"3263847","MEAN_MOTION":"15.06400127","GP_ID":"193191017","CLASSIFICATION_TYPE":"U","EPHEMERIS_TYPE":"0","NORAD_CAT_ID":"45184","EPOCH":"2022-01-04T09:10:20.141184","OBJECT_ID":"2020-012G","TIME_SYSTEM":"UTC","BSTAR":"0.00004262900000","TLE_LINE1":"1 45184U 20012G   22004.38217756  .00000354  00000-0  42629-4 0  9993","MEAN_ELEMENT_THEORY":"SGP4","DECAY_DATE":null,"COUNTRY_CODE":"US","LAUNCH_DATE":"2020-02-17","INCLINATION":"53.0547","OBJECT_NAME":"STARLINK-1205","ECCENTRICITY":"0.00013910","SEMIMAJOR_AXIS":"6925.348","CENTER_NAME":"EARTH","TLE_LINE2":"2 45184  53.0547  33.9819 0001391  69.4680 290.6458 15.06400127104542","MEAN_ANOMALY":"290.6458","ARG_OF_PERICENTER":"69.4680","REV_AT_EPOCH":"10454","PERIAPSIS":"546.250","RCS_SIZE":"LARGE","RA_OF_ASC_NODE":"33.9819","PERIOD":"95.592","REF_FRAME":"TEME","MEAN_MOTION_DDOT":"0.0000000000000","OBJECT_TYPE":"PAYLOAD","APOAPSIS":"548.176","MEAN_MOTION_DOT":"0.00000354","ELEMENT_SET_NO":"999","SITE":"AFETR"},{"EPHEMERIS_TYPE":"0","NORAD_CAT_ID":"45185","GP_ID":"193213764","MEAN_MOTION":"15.06395250","CLASSIFICATION_TYPE":"U","FILE":"3264067","EPOCH":"2022-01-04T15:35:08.973888","OBJECT_ID":"2020-012H","TIME_SYSTEM":"UTC","MEAN_ELEMENT_THEORY":"SGP4","TLE_LINE1":"1 45185U 20012H   22004.64940942 -.00000986  00000-0 -47349-4 0  9990","BSTAR":"-0.00004734900000","ECCENTRICITY":"0.00012920","INCLINATION":"53.0546","OBJECT_NAME":"STARLINK-1216","COUNTRY_CODE":"US","LAUNCH_DATE":"2020-02-17","DECAY_DATE":null,"TLE_LINE2":"2 45185  53.0546  52.7897 0001292  78.7959 281.3175 15.06395250104924","MEAN_ANOMALY":"281.3175","CENTER_NAME":"EARTH","SEMIMAJOR_AXIS":"6925.363","RCS_SIZE":"LARGE","PERIOD":"95.592","RA_OF_ASC_NODE":"52.7897","PERIAPSIS":"546.333","ARG_OF_PERICENTER":"78.7959","REV_AT_EPOCH":"10492","OBJECT_TYPE":"PAYLOAD","REF_FRAME":"TEME","MEAN_MOTION_DDOT":"0.0000000000000","SITE":"AFETR","ELEMENT_SET_NO":"999","APOAPSIS":"548.123","MEAN_MOTION_DOT":"-0.00000986"}];
